start=new Date('2021-10-03T00:00:00.000Z').valueOf();
sats=[{"TIME_SYSTEM":"UTC","REV_AT_EPOCH":"3243","ECCENTRICITY":"0.00008560","PERIOD":"95.593","MEAN_ELEMENT_THEORY":"SGP4","MEAN_MOTION":"15.06389727","REF_FRAME":"TEME","COUNTRY_CODE":"US","LAUNCH_DATE":"2021-03-14","OBJECT_ID":"2021-021AX","GP_ID":"186051586","FILE":"3141323","SEMIMAJOR_AXIS":"6925.380","EPHEMERIS_TYPE":"0","MEAN_ANOMALY":"233.5167","NORAD_CAT_ID":"47905","INCLINATION":"53.0568","OBJECT_TYPE":"PAYLOAD","OBJECT_NAME":"STARLINK-2365","RA_OF_ASC_NODE":"329.2786","ELEMENT_SET_NO":"999","TLE_LINE1":"1 47905U 21021AX  21275.75794336  .00000230  00000-0  34340-4 0  9995","TLE_LINE2":"2 47905  53.0568 329.2786 0000856 126.5901 233.5167 15.06389727 32431","DECAY_DATE":null,"CLASSIFICATION_TYPE":"U","CENTER_NAME":"EARTH","BSTAR":"0.00003434000000","PERIAPSIS":"546.652","EPOCH":"2021-10-02T18:11:26.306304","APOAPSIS":"547.838","RCS_SIZE":"LARGE","MEAN_MOTION_DDOT":"0.0000000000000","SITE":"AFETR","MEAN_MOTION_DOT":"0.00000230","ARG_OF_PERICENTER":"126.5901"},{"BSTAR":"0.00003368900000","PERIAPSIS":"349.201","ELEMENT_SET_NO":"999","RA_OF_ASC_NODE":"298.5350","OBJECT_NAME":"STARLINK-2366","CENTER_NAME":"EARTH","CLASSIFICATION_TYPE":"U","TLE_LINE2":"2 47906  53.0523 298.5350 0008164 328.4825  31.5702 15.71469636 32853","DECAY_DATE":null,"TLE_LINE1":"1 47906U 21021AY  21275.68467617  .00003788  00000-0  33689-4 0  9993","MEAN_MOTION_DOT":"0.00003788","ARG_OF_PERICENTER":"328.4825","APOAPSIS":"360.195","EPOCH":"2021-10-02T16:25:56.021088","SITE":"AFETR","MEAN_MOTION_DDOT":"0.0000000000000","RCS_SIZE":"LARGE","MEAN_MOTION":"15.71469636","MEAN_ELEMENT_THEORY":"SGP4","REV_AT_EPOCH":"3285","ECCENTRICITY":"0.00081640","TIME_SYSTEM":"UTC","PERIOD":"91.634","SEMIMAJOR_AXIS":"6732.833","OBJECT_ID":"2021-021AY","GP_ID":"186052337","FILE":"3141323","OBJECT_TYPE":"PAYLOAD","INCLINATION":"53.0523","NORAD_CAT_ID":"47906","EPHEMERIS_TYPE":"0","MEAN_ANOMALY":"31.5702","REF_FRAME":"TEME","LAUNCH_DATE":"2021-03-14","COUNTRY_CODE":"US"},{"COUNTRY_CODE":"US","LAUNCH_DATE":"2021-03-14","REF_FRAME":"TEME","MEAN_ANOMALY":"248.0584","EPHEMERIS_TYPE":"0","INCLINATION":"53.0581","OBJECT_TYPE":"PAYLOAD","NORAD_CAT_ID":"47907","GP_ID":"186052588","OBJECT_ID":"2021-021AZ","FILE":"3141323","SEMIMAJOR_AXIS":"6925.359","PERIOD":"95.592","REV_AT_EPOCH":"3198","ECCENTRICITY":"0.00011450","TIME_SYSTEM":"UTC","MEAN_ELEMENT_THEORY":"SGP4","MEAN_MOTION":"15.06396492","RCS_SIZE":"LARGE","SITE":"AFETR","MEAN_MOTION_DDOT":"0.0000000000000","APOAPSIS":"548.017","EPOCH":"2021-10-02T15:13:36.327072","ARG_OF_PERICENTER":"112.0526","MEAN_MOTION_DOT":"0.00000471","TLE_LINE1":"1 47907U 21021AZ  21275.63444823  .00000471  00000-0  50485-4 0  9992","TLE_LINE2":"2 47907  53.0581 349.8335 0001145 112.0526 248.0584 15.06396492 31981","DECAY_DATE":null,"CENTER_NAME":"EARTH","CLASSIFICATION_TYPE":"U","RA_OF_ASC_NODE":"349.8335","OBJECT_NAME":"STARLINK-2367","ELEMENT_SET_NO":"999","PERIAPSIS":"546.431","BSTAR":"0.00005048500000"},{"MEAN_ELEMENT_THEORY":"SGP4","MEAN_MOTION":"15.06399269","TIME_SYSTEM":"UTC","REV_AT_EPOCH":"3200","ECCENTRICITY":"0.00011160","PERIOD":"95.592","GP_ID":"186053339","FILE":"3141323","OBJECT_ID":"2021-021BA","SEMIMAJOR_AXIS":"6925.351","EPHEMERIS_TYPE":"0","MEAN_ANOMALY":"247.6455","NORAD_CAT_ID":"47908","INCLINATION":"53.0585","OBJECT_TYPE":"PAYLOAD","REF_FRAME":"TEME","COUNTRY_CODE":"US","LAUNCH_DATE":"2021-03-14","BSTAR":"0.00006519900000","PERIAPSIS":"546.443","OBJECT_NAME":"STARLINK-2368","RA_OF_ASC_NODE":"350.0964","ELEMENT_SET_NO":"999","TLE_LINE2":"2 47908  53.0585 350.0964 0001116 112.4653 247.6455 15.06399269 32002","TLE_LINE1":"1 47908U 21021BA  21275.57547115  .00000690  00000-0  65199-4 0  9995","DECAY_DATE":null,"CLASSIFICATION_TYPE":"U","CENTER_NAME":"EARTH","MEAN_MOTION_DOT":"0.00000690","ARG_OF_PERICENTER":"112.4653","APOAPSIS":"547.989","EPOCH":"2021-10-02T13:48:40.707360","RCS_SIZE":"LARGE","MEAN_MOTION_DDOT":"0.0000000000000","SITE":"AFETR"},{"APOAPSIS":"548.025","EPOCH":"2021-10-02T14:11:14.109792","RCS_SIZE":"MEDIUM","MEAN_MOTION_DDOT":"0.0000000000000","SITE":"AFETR","MEAN_MOTION_DOT":"0.00000431","ARG_OF_PERICENTER":"124.4709","RA_OF_ASC_NODE":"340.0278","OBJECT_NAME":"STARLINK-2369","ELEMENT_SET_NO":"999","TLE_LINE2":"2 47909  53.0572 340.0278 0001173 124.4709 235.6391 15.06400327 32312","DECAY_DATE":null,"TLE_LINE1":"1 47909U 21021BB  21275.59113553  .00000431  00000-0  47836-4 0  9994","CENTER_NAME":"EARTH","CLASSIFICATION_TYPE":"U","BSTAR":"0.00004783600000","PERIAPSIS":"546.400","REF_FRAME":"TEME","COUNTRY_CODE":"US","LAUNCH_DATE":"2021-03-14","OBJECT_ID":"2021-021BB","GP_ID":"186052087","FILE":"3141323","SEMIMAJOR_AXIS":"6925.348","EPHEMERIS_TYPE":"0","MEAN_ANOMALY":"235.6391","INCLINATION":"53.0572","OBJECT_TYPE":"PAYLOAD","NORAD_CAT_ID":"47909","REV_AT_EPOCH":"3231","ECCENTRICITY":"0.00011730","TIME_SYSTEM":"UTC","PERIOD":"95.592","MEAN_ELEMENT_THEORY":"SGP4","MEAN_MOTION":"15.06400327"},{"PERIOD":"95.592","TIME_SYSTEM":"UTC","REV_AT_EPOCH":"3218","ECCENTRICITY":"0.00011330","MEAN_ELEMENT_THEORY":"SGP4","MEAN_MOTION":"15.06403135","COUNTRY_CODE":"US","LAUNCH_DATE":"2021-03-14","REF_FRAME":"TEME","EPHEMERIS_TYPE":"0","MEAN_ANOMALY":"259.6859","NORAD_CAT_ID":"47910","OBJECT_TYPE":"PAYLOAD","INCLINATION":"53.0563","OBJECT_ID":"2021-021BC","GP_ID":"186051837","FILE":"3141323","SEMIMAJOR_AXIS":"6925.339","TLE_LINE2":"2 47910  53.0563 339.5620 0001133 100.4258 259.6859 15.06403135 32187","DECAY_DATE":null,"TLE_LINE1":"1 47910U 21021BC  21275.69339818  .00000775  00000-0  70913-4 0  9994","CLASSIFICATION_TYPE":"U","CENTER_NAME":"EARTH","OBJECT_NAME":"STARLINK-2370","RA_OF_ASC_NODE":"339.5620","ELEMENT_SET_NO":"999","PERIAPSIS":"546.419","BSTAR":"0.00007091300000","RCS_SIZE":"LARGE","SITE":"AFETR","MEAN_MOTION_DDOT":"0.0000000000000","EPOCH":"2021-10-02T16:38:29.602752","APOAPSIS":"547.989","ARG_OF_PERICENTER":"100.4258","MEAN_MOTION_DOT":"0.00000775"},{"REF_FRAME":"TEME","COUNTRY_CODE":"US","LAUNCH_DATE":"2021-03-14","OBJECT_ID":"2021-021BD","GP_ID":"186053089","FILE":"3141323","SEMIMAJOR_AXIS":"6925.359","EPHEMERIS_TYPE":"0","MEAN_ANOMALY":"250.4207","OBJECT_TYPE":"PAYLOAD","INCLINATION":"53.0580","NORAD_CAT_ID":"47911","REV_AT_EPOCH":"3177","ECCENTRICITY":"0.00012050","TIME_SYSTEM":"UTC","PERIOD":"95.592","MEAN_ELEMENT_THEORY":"SGP4","MEAN_MOTION":"15.06396545","EPOCH":"2021-10-02T11:41:56.092128","APOAPSIS":"548.059","RCS_SIZE":"LARGE","MEAN_MOTION_DDOT":"0.0000000000000","SITE":"AFETR","MEAN_MOTION_DOT":"0.00002665","ARG_OF_PERICENTER":"109.6912","RA_OF_ASC_NODE":"355.4961","OBJECT_NAME":"STARLINK-2371","ELEMENT_SET_NO":"999","TLE_LINE2":"2 47911  53.0580 355.4961 0001205 109.6912 250.4207 15.06396545 31776","TLE_LINE1":"1 47911U 21021BD  21275.48745477  .00002665  00000-0  19777-3 0  9994","DECAY_DATE":null,"CENTER_NAME":"EARTH","CLASSIFICATION_TYPE":"U","BSTAR":"0.00019777000000","PERIAPSIS":"546.390"},{"APOAPSIS":"547.821","EPOCH":"2021-10-02T14:53:42.223776","MEAN_MOTION_DDOT":"0.0000000000000","SITE":"AFETR","RCS_SIZE":"LARGE","MEAN_MOTION_DOT":"0.00002657","ARG_OF_PERICENTER":"111.7891","ELEMENT_SET_NO":"999","OBJECT_NAME":"STARLINK-2372","RA_OF_ASC_NODE":"339.9101","CLASSIFICATION_TYPE":"U","CENTER_NAME":"EARTH","DECAY_DATE":null,"TLE_LINE2":"2 47912  53.0520 339.9101 0000886 111.7891 248.3192 15.06402095 32002","TLE_LINE1":"1 47912U 21021BE  21275.62062759  .00002657  00000-0  19716-3 0  9990","BSTAR":"0.00019716000000","PERIAPSIS":"546.594","REF_FRAME":"TEME","LAUNCH_DATE":"2021-03-14","COUNTRY_CODE":"US","SEMIMAJOR_AXIS":"6925.342","GP_ID":"186052839","FILE":"3141323","OBJECT_ID":"2021-021BE","NORAD_CAT_ID":"47912","OBJECT_TYPE":"PAYLOAD","INCLINATION":"53.0520","EPHEMERIS_TYPE":"0","MEAN_ANOMALY":"248.3192","TIME_SYSTEM":"UTC","REV_AT_EPOCH":"3200","ECCENTRICITY":"0.00008860","PERIOD":"95.592","MEAN_MOTION":"15.06402095","MEAN_ELEMENT_THEORY":"SGP4"},{"BSTAR":"0.00021036000000","PERIAPSIS":"546.378","ELEMENT_SET_NO":"999","RA_OF_ASC_NODE":"350.0704","OBJECT_NAME":"STARLINK-2374","CENTER_NAME":"EARTH","CLASSIFICATION_TYPE":"U","DECAY_DATE":null,"TLE_LINE2":"2 47913  53.0582 350.0704 0001188 110.0642 250.0475 15.06404317 32021","TLE_LINE1":"1 47913U 21021BF  21275.58189923  .00002854  00000-0  21036-3 0  9996","MEAN_MOTION_DOT":"0.00002854","ARG_OF_PERICENTER":"110.0642","APOAPSIS":"548.023","EPOCH":"2021-10-02T13:57:56.093472","MEAN_MOTION_DDOT":"0.0000000000000","SITE":"AFETR","RCS_SIZE":"LARGE","MEAN_MOTION":"15.06404317","MEAN_ELEMENT_THEORY":"SGP4","REV_AT_EPOCH":"3202","ECCENTRICITY":"0.00011880","TIME_SYSTEM":"UTC","PERIOD":"95.592","SEMIMAJOR_AXIS":"6925.335","OBJECT_ID":"2021-021BF","GP_ID":"186051587","FILE":"3141323","OBJECT_TYPE":"PAYLOAD","INCLINATION":"53.0582","NORAD_CAT_ID":"47913","EPHEMERIS_TYPE":"0","MEAN_ANOMALY":"250.0475","REF_FRAME":"TEME","LAUNCH_DATE":"2021-03-14","COUNTRY_CODE":"US"},{"NORAD_CAT_ID":"47914","INCLINATION":"53.0578","OBJECT_TYPE":"PAYLOAD","MEAN_ANOMALY":"254.0371","EPHEMERIS_TYPE":"0","SEMIMAJOR_AXIS":"6925.371","OBJECT_ID":"2021-021BG","GP_ID":"186052338","FILE":"3141323","LAUNCH_DATE":"2021-03-14","COUNTRY_CODE":"US","REF_FRAME":"TEME","MEAN_MOTION":"15.06392671","MEAN_ELEMENT_THEORY":"SGP4","PERIOD":"95.593","TIME_SYSTEM":"UTC","REV_AT_EPOCH":"3202","ECCENTRICITY":"0.00013450","ARG_OF_PERICENTER":"106.0766","MEAN_MOTION_DOT":"0.00000356","MEAN_MOTION_DDOT":"0.0000000000000","SITE":"AFETR","RCS_SIZE":"LARGE","APOAPSIS":"548.167","EPOCH":"2021-10-02T15:29:32.146080","PERIAPSIS":"546.305","BSTAR":"0.00004281900000","CLASSIFICATION_TYPE":"U","CENTER_NAME":"EARTH","TLE_LINE1":"1 47914U 21021BG  21275.64551095  .00000356  00000-0  42819-4 0  9995","TLE_LINE2":"2 47914  53.0578 349.7830 0001345 106.0766 254.0371 15.06392671 32027","DECAY_DATE":null,"ELEMENT_SET_NO":"999","OBJECT_NAME":"STARLINK-2375","RA_OF_ASC_NODE":"349.7830"}];
